S-NET A                 
1 43188U 18014J   25107.67213396  .00010120  00000+0  60594-3 0  9990
2 43188  97.5675  11.2425 0011265  50.2511 309.9709 15.11154299394381
S-NET C                 
1 43189U 18014K   25107.67858856  .00010292  00000+0  61639-3 0  9998
2 43189  97.5688  11.2536 0012581  42.6812 317.5393 15.11126980392939
PAZ                     
1 43215U 18020A   25108.45426386  .00003548  00000+0  17201-3 0  9993
2 43215  97.4445 116.9197 0001753  89.0483 271.0952 15.19161945396536
GOES 17                 
1 43226U 18022A   25107.92266889 -.00000084  00000+0  00000+0 0  9996
2 43226   0.0206 301.5083 0002506 145.1525 347.4128  1.00272559 26179
LKW-4                   
1 43236U 18025A   25107.95007911  .00021562  00000+0  60230-3 0  9990
2 43236  97.5925 251.6151 0003991  56.8940 303.2687 15.36722481394275
ZHUHAI-1 OVS-02         
1 43440U 18040B   25108.52735184  .00013950  00000+0  54053-3 0  9996
2 43440  97.0785 146.8721 0001456 261.0652  99.0422 15.26254668388134
ZHUHAI-1 OHS-02         
1 43441U 18040C   25108.54424109  .00013889  00000+0  55474-3 0  9990
2 43441  97.0851 150.8572 0011315 316.9871  43.0482 15.25185391388136
GAOFEN-6                
1 43484U 18048A   25108.52350268  .00001556  00000+0  22989-3 0  9990
2 43484  97.8258 180.3631 0014248 104.0707 256.2087 14.76557993370729
LUOJIA-1 01             
1 43485U 18048B   25108.52207296  .00003932  00000+0  46788-3 0  9996
2 43485  97.8428 188.3290 0010770  79.2822 280.9605 14.84904219371126
PAKTES 1A               
1 43529U 18056A   25108.50178084  .00004387  00000+0  39138-3 0  9990
2 43529  98.0687 244.3622 0023301  81.8989 278.4873 14.96312709368354
PRSS 1                  
1 43530U 18056B   25108.49182908  .00001864  00000+0  24756-3 0  9997
2 43530  97.8270 182.1467 0001313  90.6763 269.4600 14.80943720365557
HAIYANG-1C              
1 43609U 18068A   25108.49812656  .00000334  00000+0  13489-3 0  9999
2 43609  98.5644 180.7949 0009054 273.8532  86.1618 14.34141205346217
SSTL S1-4               
1 43618U 18071A   25108.54043956  .00002171  00000+0  19984-3 0  9995
2 43618  97.5617 351.1922 0004053 123.2964 236.8646 14.95724795359444
HAIYANG-2B              
1 43655U 18081A   25108.52111802  .00000020  00000+0  62512-4 0  9998
2 43655  99.3356 118.5815 0001017  20.9998 339.1195 13.79304216326384
CZ-4B R/B               
1 43656U 18081B   25108.22150317  .00000353  00000+0  12181-3 0  9995
2 43656  99.4040 346.7862 0206148  50.4374 311.4819 14.31616510338494
CFOSAT                  
1 43662U 18083A   25108.53231307  .00005972  00000+0  31203-3 0  9995
2 43662  97.3659 120.5041 0001991  94.2503 265.8957 15.16251640358175
TEN-KOH                 
1 43677U 18084G   25107.91213778  .00004697  00000+0  38002-3 0  9992
2 43677  98.0936 278.0727 0009393  97.2986 262.9305 15.00248636352341
DIWATA-2B               
1 43678U 18084H   25108.49426459  .00005005  00000+0  42859-3 0  9998
2 43678  98.1011 282.6471 0010162 100.9388 259.2977 14.98016983352582
STARS-AO                
1 43679U 18084J   25108.49683555  .00008788  00000+0  53905-3 0  9996
2 43679  98.0760 292.6118 0003309 151.7486 208.3922 15.10392462353221
AUTCUBE 2               
1 43681U 18084K   25108.01756263  .00007507  00000+0  52298-3 0  9996
2 43681  98.0851 287.5043 0010575  45.5399 314.6689 15.05706663352856
METOP-C                 
1 43689U 18087A   25108.48632859  .00000262  00000+0  13937-3 0  9990
2 43689  98.6778 169.5010 0000363  17.0044 343.1145 14.21515366334495
ES'HAIL 2               
1 43700U 18090A   25108.18173894  .00000153  00000+0  00000+0 0  9996
2 43700   0.0155 243.7533 0001801 177.7557 236.2970  1.00268730 23655
TIANPING 1B             
1 43714U 18094E   25108.53548677  .00051987  00000+0  53405-3 0  9991
2 43714  97.3312 139.5224 0004963 207.7402 152.3593 15.64746648358056
MOHAMMED VI-B           
1 43717U 18095A   25108.50254127  .00001559  38260-9  22138-3 0  9994
2 43717  97.9556 181.9080 0001412  87.4932 272.6440 14.77039100332053
HYSIS                   
1 43719U 18096A   25108.50832326  .00002247  80020-9  30792-3 0  9991
2 43719  98.0340 172.2146 0001734  84.1247 276.0162 14.78551235344662
COSMOS 2530             
1 43751U 18097A   25108.50824288  .00000007  00000+0 -19567-4 0  9997
2 43751  82.5105 125.9023 0018373 239.7252 120.2010 12.42864451289627
COSMOS 2531             
1 43752U 18097B   25108.21267609  .00000018  00000+0  56156-4 0  9990
2 43752  82.5151 126.9911 0015089 260.2599  99.6776 12.42857076289588
COSMOS 2532             
1 43753U 18097C   25108.48096285  .00000019  00000+0  64924-4 0  9993
2 43753  82.5095 125.8021 0016623 261.7920  98.1274 12.42856516289625
MINXSS-2                
1 43758U 18099A   25107.76589880  .00023017  00000+0  95705-3 0  9991
2 43758  97.5053 173.6913 0011023 347.8045  12.2923 15.23737535348922
SIRION PATHFINDER-2     
1 43759U 18099B   25107.68650097  .00009291  00000+0  58714-3 0  9999
2 43759  97.4826 161.8893 0008659 335.3383  24.7431 15.09229384348333
AISTECHSAT 2            
1 43768U 18099L   25107.71522055  .00008693  00000+0  54315-3 0  9993
2 43768  97.4871 160.2108 0004215 344.4014  15.7085 15.09685543347967
FOX-1CLIFF (AO-95)      
1 43770U 18099N   25107.73772696  .00014878  00000+0  77482-3 0  9998
2 43770  97.4961 166.4346 0011580  44.5433 315.6728 15.16048132348544
2018-099Q               
1 43772U 18099Q   25107.73794634  .00030073  00000+0  10997-2 0  9998
2 43772  97.4751 172.4673 0002734 273.3617  86.7309 15.28019370348928
RANGE-A                 
1 43773U 18099R   25107.67826017  .00008775  00000+0  56592-3 0  9999
2 43773  97.4535 157.6177 0011696  22.1282 338.0449 15.08472758348242
HIBER-2                 
1 43774U 18099S   25107.75730134  .00041258  00000+0  12444-2 0  9993
2 43774  97.4924 175.8921 0004261 320.5318  39.5614 15.34169577349079
MOVE-II                 
1 43780U 18099Y   25108.14015528  .00150677  00000+0  20380-2 0  9991
2 43780  97.4690 180.5462 0002517 257.9278 102.1695 15.57207062349599
VESTA-1                 
1 43781U 18099Z   25108.15053633  .00054229  00000+0  16471-2 0  9994
2 43781  97.4677 170.0530 0001773   5.5582 354.5680 15.33884845349011
SNUSAT-2                
1 43782U 18099AA  25107.67277299  .00012834  00000+0  71659-3 0  9993
2 43782  97.4649 163.5446 0011207 344.3472  15.7411 15.13608412348490
SNUGLITE                
1 43784U 18099AC  25107.71305740  .00015619  00000+0  80744-3 0  9992
2 43784  97.4459 163.0452 0002795   7.3866 352.7408 15.16350055348623
ITASAT                  
1 43786U 18099AE  25108.15151493  .00009178  00000+0  53500-3 0  9990
2 43786  97.4617 163.6728 0015202  34.0109 326.2093 15.12105732348539
KAZSCISAT-1             
1 43787U 18099AF  25108.12305005  .00147285  00000+0  21740-2 0  9990
2 43787  97.4525 176.2041 0003560 256.7978 103.2879 15.54838463349533
EAGLET-I                
1 43790U 18099AJ  25107.69395257  .00008156  00000+0  52589-3 0  9992
2 43790  97.4816 163.3461 0012360  18.6924 341.4756 15.08494015348097
ESEO                    
1 43792U 18099AL  25107.65655853  .00003420  00000+0  26249-3 0  9994
2 43792  97.4546 157.2716 0011332 358.5071   1.6118 15.02371773347872
CSIM-FD                 
1 43793U 18099AM  25108.17620106  .00122930  00000+0  16552-2 0  9999
2 43793  97.4871 182.7564 0005260 272.6073  87.4580 15.57415780349446
THEA                    
1 43796U 18099AQ  25107.63935772  .00017832  00000+0  82796-3 0  9998
2 43796  97.4979 171.8467 0009213 353.9094   6.2027 15.20039062347759
ASTROCAST 0.1           
1 43798U 18099AS  25107.66636709  .00022972  00000+0  87584-3 0  9992
2 43798  97.4875 174.9652 0006358 300.9985  59.0628 15.26680462349098
JY1SAT (JO-97)          
1 43803U 18099AX  25107.72790442  .00018312  00000+0  86766-3 0  9995
2 43803  97.4707 167.3146 0006393 338.5035  21.5930 15.19349601348745
SUOMI-100               
1 43804U 18099AY  25107.72687988  .00015458  00000+0  77961-3 0  9991
2 43804  97.4771 166.7516 0011496 337.7576  22.3157 15.17169412348683
AL-FARABI 2             
1 43805U 18099AZ  25107.71239695  .00033862  00000+0  11529-2 0  9995
2 43805  97.4590 171.4912 0005536 306.4775  53.5955 15.30319302349085
CENTAURI-1              
1 43809U 18099BD  25108.15272353  .00008273  00000+0  50313-3 0  9999
2 43809  97.4810 164.1398 0015764   3.8971 356.2378 15.10593244348214
GLOBAL-2                
1 43812U 18099BG  25107.65879349  .00006455  00000+0  45568-3 0  9991
2 43812  97.4110 156.3764 0007175 157.6276 202.5265 15.05245846347824
BRIO                    
1 43813U 18099BH  25107.79663834  .00135287  00000+0  17591-2 0  9997
2 43813  97.5188 187.4867 0004115 261.1411  98.9379 15.58314257349290
SEAHAWK-1               
1 43820U 18099BQ  25107.67552484  .00013073  00000+0  71909-3 0  9992
2 43820  97.4548 162.7487 0009423   3.1900 356.9390 15.14155071347966
SAUDISAT 5A             
1 43831U 18102A   25108.49245101  .00007897  00000+0  34432-3 0  9992
2 43831  97.3616 173.4051 0011124 184.1007 176.0140 15.22387477350940
SAUDISAT 5B             
1 43833U 18102C   25108.48209749  .00007689  00000+0  33072-3 0  9999
2 43833  97.3690 175.7197 0011721 187.8164 172.2892 15.22854494351049
2018-102D               
1 43834U 18102D   25108.53160827  .00021731  00000+0  60656-3 0  9991
2 43834  97.3820 184.4619 0009440 166.5556 193.5942 15.36704296351530
ISAT                    
1 43879U 18111D   25107.74050905  .00027981  00000+0  10407-2 0  9998
2 43879  97.5984  21.0503 0010724  38.2789 321.9209 15.27425657345627
UWE-4                   
1 43880U 18111E   25107.72190990  .00023963  00000+0  98842-3 0  9993
2 43880  97.5924  19.8583 0014182  44.3247 315.9123 15.23963517345575
D-STAR ONE (SPARROW)    
1 43881U 18111F   25108.22078726  .00025696  00000+0  92473-3 0  9991
2 43881  97.6119  24.2234 0009987  70.5633 289.6685 15.28536894343783
